[{"OBJECT_NAME":"O3B MPOWER F9","OBJECT_ID":"2025-153A","EPOCH":"2026-04-25T19:18:35.380224","MEAN_MOTION":5.00116064,"ECCENTRICITY":0.0005552,"INCLINATION":0.0539,"RA_OF_ASC_NODE":15.2785,"ARG_OF_PERICENTER":44.5914,"MEAN_ANOMALY":300.1834,"EPHEMERIS_TYPE":0,"CLASSIFICATION_TYPE":"U","NORAD_CAT_ID":64866,"ELEMENT_SET_NO":999,"REV_AT_EPOCH":1694,"BSTAR":0,"MEAN_MOTION_DOT":-2.7e-7,"MEAN_MOTION_DDOT":0},{"OBJECT_NAME":"O3B MPOWER F10","OBJECT_ID":"2025-153B","EPOCH":"2026-04-25T08:53:47.836320","MEAN_MOTION":5.00114865,"ECCENTRICITY":0.0002819,"INCLINATION":0.0538,"RA_OF_ASC_NODE":10.3189,"ARG_OF_PERICENTER":261.8403,"MEAN_ANOMALY":87.8067,"EPHEMERIS_TYPE":0,"CLASSIFICATION_TYPE":"U","NORAD_CAT_ID":64867,"ELEMENT_SET_NO":999,"REV_AT_EPOCH":1939,"BSTAR":0,"MEAN_MOTION_DOT":-2.7e-7,"MEAN_MOTION_DDOT":0}]
